OPS 6582 (TRANSIT 5B-5) 
1 00965U 64083D   23114.17584494  .00000181  00000+0  24043-3 0  9999
2 00965  90.0378 196.4829 0042399  43.0619 335.0864 13.56819978887658
OSCAR 7 (AO-7)          
1 07530U 74089B   23114.42255987 -.00000027  00000+0  11695-3 0  9990
2 07530 101.9455 100.7420 0012279 164.8075 351.2126 12.53663565216436
UOSAT 2 (UO-11)         
1 14781U 84021B   23114.55018543  .00005067  00000+0  60355-3 0  9997
2 14781  97.6544  93.5779 0008919  29.1290 331.0421 14.84723845 86181
NOAA 9                  
1 15427U 84123A   23114.39234802  .00000718  00000+0  38461-3 0  9999
2 15427  99.0871  97.3398 0015027   8.6850 150.2077 14.16347580980622
LUSAT (LO-19)           
1 20442U 90005G   23114.41633140  .00000877  00000+0  33538-3 0  9995
2 20442  98.8403  89.7959 0011362 342.0432  18.0348 14.33238077737643
ITAMSAT (IO-26)         
1 22826U 93061D   23114.07980922  .00000494  00000+0  20653-3 0  9992
2 22826  98.8416 155.9476 0008489 205.3337 154.7430 14.30647334542827
RADIO ROSTO (RS-15)     
1 23439U 94085A   23114.61044363 -.00000039  00000+0  10000-3 0  9991
2 23439  64.8163   2.3487 0164109 219.5471 139.3385 11.27573758166578
JAS-2 (FO-29)           
1 24278U 96046B   23114.36050923  .00000077  00000+0  11395-3 0  9992
2 24278  98.5258 100.2617 0349954 196.3711 162.5891 13.53142485317651
NOAA 15                 
1 25338U 98030A   23114.56188668  .00000637  00000+0  28334-3 0  9998
2 25338  98.6112 144.5236 0011578 109.0722 251.1713 14.26300694297360
TECHSAT 1B (GO-32)      
1 25397U 98043D   23113.90117169  .00000509  00000+0  24194-3 0  9990
2 25397  98.8640  70.9045 0000549 350.2882   9.8286 14.23862618287601
ISS (ZARYA)             
1 25544U 98067A   23114.56846125  .00022639  00000+0  40039-3 0  9998
2 25544  51.6407 234.2648 0005841 233.9101 232.0722 15.50208430393473
ORSTED                  
1 25635U 99008B   23114.45155374  .00002519  00000+0  59937-3 0  9994
2 25635  96.4564 271.2979 0135507 267.9945  90.5731 14.48961667275301
PHASE 3D (AO-40)        
1 26609U 00072B   23113.99458923 -.00000201  00000+0  00000+0 0  9993
2 26609   5.8494 191.2560 7926398 149.5224 301.8178  1.25588312103052
PCSAT (NO-44)           
1 26931U 01043C   23114.59018128  .00000629  00000+0  27076-3 0  9995
2 26931  67.0519 335.2153 0007383 280.1228  79.9041 14.30896013125910
SAUDISAT 1C (SO-50)     
1 27607U 02058C   23114.34567191  .00006133  00000+0  84544-3 0  9994
2 27607  64.5558  69.9756 0073527 235.4592 123.9557 14.77160923 94277
CUTE-1 (CO-55)          
1 27844U 03031E   23114.45065994  .00001572  00000+0  72053-3 0  9999
2 27844  98.6799 122.4926 0008576 283.2379  76.7842 14.22744382 28091
CUBESAT XI-IV (CO-57)   
1 27848U 03031J   23114.44335787  .00001323  00000+0  61547-3 0  9992
2 27848  98.6837 122.9212 0008593 300.0944  59.9381 14.22259315 27868
MOZHAYETS 4 (RS-22)     
1 27939U 03042A   23114.48448950  .00001902  00000+0  33856-3 0  9991
2 27939  98.2346 261.0717 0011396 308.5977  51.4218 14.68232547 46662
INMARSAT 4-F1           
1 28628U 05009A   23114.48407963 -.00000262  00000+0  00000+0 0  9991
2 28628   3.8664  37.9896 0002633   5.1166 126.8999  1.00277948 66149
NOAA 18                 
1 28654U 05018A   23114.60174046  .00000632  00000+0  36292-3 0  9993
2 28654  98.9111 189.2485 0014689 167.7447 192.4085 14.12921906923915
CUBESAT XI-V            
1 28895U 05043F   23114.61332513  .00005701  00000+0  10594-2 0  9992
2 28895  98.1450 247.1155 0015348 238.3149 121.6558 14.65470321932967
METOP-A                 
1 29499U 06044A   23114.60284149  .00008913  00000+0  11573-2 0  9991
2 29499  98.4041 173.5530 0195956 111.3475  47.5525 14.68378543856312
CARTOSAT-2 (IRS-P7)     
1 29710U 07001B   23114.34142026  .00126669  00000+0  18846-2 0  9998
2 29710  97.8836 246.5036 0105613  36.6628 324.1787 15.48437439883969
CAPE-1                  
1 31130U 07012P   23114.29865155  .00007902  00000+0  16193-2 0  9999
2 31130  98.3044  58.4212 0094674  50.4919 310.4602 14.58185219850371
CARTOSAT-2A             
1 32783U 08021A   23114.42832805  .00001527  00000+0  21516-3 0  9999
2 32783  97.9193 175.7493 0011741 236.6130 123.3959 14.78684541808976
CUTE-1.7+APD II (CO-65) 
1 32785U 08021C   23114.48082025  .00013848  00000+0  13721-2 0  9995
2 32785  97.7025  81.6177 0010457 284.9051  75.1010 14.91887356812819
COMPASS-1               
1 32787U 08021E   23114.38085220  .00045784  00000+0  36178-2 0  9991
2 32787  97.5963  92.0954 0011701 185.2712 174.8390 15.00443120814581
AAUSAT-II               
1 32788U 08021F   23114.37073365  .00053979  00000+0  40056-2 0  9993
2 32788  97.5557  95.0426 0008160 166.4813 193.6632 15.02812647815020
DELFI-C3 (DO-64)        
1 32789U 08021G   23114.28094415  .00279737  00000+0  89932-2 0  9991
2 32789  97.3088 136.3442 0003870 324.4933  35.6050 15.31061108819121
SEEDS II (CO-66)        
1 32791U 08021J   23114.37625889  .00028959  00000+0  25689-2 0  9996
2 32791  97.6523  86.7830 0010781 227.2370 132.7945 14.96091505813618
YUBILEINY (RS-30)       
1 32953U 08025A   23114.44263396  .00000024  00000+0  10000-3 0  9994
2 32953  82.5068 350.5339 0018989 304.1630  55.7650 12.43122217676971
FENGYUN 3A              
1 32958U 08026A   23114.33524813  .00000684  00000+0  34872-3 0  9997
2 32958  98.5504  70.0212 0008214 197.7799 162.3091 14.18857872772308
PRISM (HITOMI)          
1 33493U 09002B   23114.03487122  .00029835  00000+0  20760-2 0  9994
2 33493  98.2494 124.8018 0015383 222.5079 137.4956 15.05331144775596
STARS (KUKAI)           
1 33498U 09002G   23114.53026267  .00010739  00000+0  13669-2 0  9996
2 33498  98.1397  16.5203 0009666 336.1797  23.8967 14.81719417767464
KKS-1 (KISEKI)          
1 33499U 09002H   23114.53791836  .00005458  00000+0  78246-3 0  9993
2 33499  98.1785   6.1575 0009841  46.1266 314.0755 14.76924521766149
NOAA 19                 
1 33591U 09005A   23114.56869288  .00000569  00000+0  33123-3 0  9992
2 33591  99.1054 159.6256 0014380  37.8550 322.3630 14.12741171732111
SWISSCUBE               
1 35932U 09051B   23114.10004754  .00001732  00000+0  39087-3 0  9991
2 35932  98.5288 343.1599 0007643 163.6569 196.4877 14.57597132721336
BEESAT-1                
1 35933U 09051C   23114.53928753  .00002702  00000+0  60456-3 0  9995
2 35933  98.5217 344.9899 0005659 171.8631 188.2659 14.57531366721476
ITUPSAT1                
1 35935U 09051E   23113.58295601  .00001268  00000+0  29548-3 0  9993
2 35935  98.5318 343.9759 0007764 183.1073 177.0077 14.56578029721048
XIWANG-1 (HOPE-1)       
1 36122U 09072B   23114.35186737 -.00000015  00000+0  73073-4 0  9993
2 36122 100.2335  79.9376 0007433 352.2324   7.8673 13.16381772641718
CARTOSAT-2B             
1 36795U 10035A   23114.46578009  .00002068  00000+0  28884-3 0  9997
2 36795  97.9136 175.7188 0012120 320.5827  39.4515 14.78679554690027
TISAT 1                 
1 36799U 10035E   23114.10330674  .00008649  00000+0  78041-3 0  9997
2 36799  98.1434 341.6207 0012188 147.4051 212.7924 14.95729166694141
FENGYUN 3B              
1 37214U 10059A   23114.28261445 -.00000039  00000+0  37646-5 0  9998
2 37214  99.0869 130.7335 0022080 195.8305 164.2183 14.14328298644893
JUGNU                   
1 37839U 11058B   23114.22862663  .00001101  00000+0  44106-3 0  9991
2 37839  19.9607  90.3004 0018715 344.4282  44.0326 14.12940244596256
SRMSAT                  
1 37841U 11058D   23114.55676566  .00000769  00000+0  27723-3 0  9990
2 37841  19.9706 174.2720 0011843 161.4552 345.2028 14.10879784595227
M-CUBED & EXP-1 PRIME   
1 37855U 11061F   23114.60264222  .00078337  00000+0  25893-2 0  9998
2 37855 101.7043  46.3897 0124909 203.4537 156.0958 15.23795240628392
HORYU-2                 
1 38340U 12025D   23113.98191001  .00004682  00000+0  65174-3 0  9992
2 38340  98.1688 201.8558 0009782 316.0871  43.9561 14.78253795578088
METOP-B                 
1 38771U 12049A   23114.62060597  .00000473  00000+0  23614-3 0  9990
2 38771  98.6830 174.8783 0001346 116.8086  37.9822 14.21501481549943
SARAL                   
1 39086U 13009A   23114.58457391  .00000421  00000+0  17255-3 0  9991
2 39086  98.5484 300.6545 0003026  87.7918 272.3612 14.32181322531010
AAUSAT 3                
1 39087U 13009B   23114.02864231  .00001202  00000+0  42205-3 0  9997
2 39087  98.3819 310.5879 0013121  60.7963 299.4514 14.36705669532167
STRAND-1                
1 39090U 13009E   23114.47483429  .00001486  00000+0  53049-3 0  9998
2 39090  98.3914 309.3045 0010108  68.0128 292.2131 14.35563288532012
BRITE-AUSTRIA           
1 39091U 13009F   23114.05124503  .00000664  00000+0  24577-3 0  9999
2 39091  98.3941 308.1114 0011609  74.8361 285.4108 14.35459396531985
UNIBRITE                
1 39092U 13009G   23114.24020135  .00001015  00000+0  36848-3 0  9992
2 39092  98.3978 308.1195 0010490  70.5158 289.7160 14.35333964531964
SOMP                    
1 39134U 13015E   23114.42015457  .00359031  00000+0  55431-2 0  9999
2 39134  64.8508 109.6857 0016204 262.4525  97.4778 15.52489142554612
BEESAT-3                
1 39135U 13015F   23114.56271486  .00118133  00000+0  29758-2 0  9990
2 39135  64.8584 156.4420 0021979 248.2625 111.6172 15.39008688554109
BEESAT-2                
1 39136U 13015G   23114.12018019  .00050433  00000+0  13934-2 0  9991
2 39136  64.8682 168.6591 0026709 282.9987  76.8166 15.36395812553362
NEE-01 PEGASO           
1 39151U 13018B   23114.26629738  .00011259  00000+0  14037-2 0  9990
2 39151  98.0026 224.3746 0015315 330.9400  29.0959 14.82521020539699
CUBEBUG-1 (CAPITAN BETO)
1 39153U 13018D   23114.57031570  .00010042  00000+0  12233-2 0  9992
2 39153  98.0315 230.4452 0014969 323.3979  36.6211 14.83523357539843
ESTCUBE 1               
1 39161U 13021C   23114.19284365  .00001230  00000+0  19405-3 0  9993
2 39161  97.8708 187.9914 0010333 140.9594 219.2335 14.74095040535228
